NORAD_CAT_ID,OBJECT_NAME,OBJECT_TYPE,EPOCH,MEAN_MOTION,ECCENTRICITY,INCLINATION,RA_OF_ASC_NODE,ARG_OF_PERICENTER,MEAN_ANOMALY,BSTAR,MEAN_MOTION_DOT,MEAN_MOTION_DDOT,TLE_LINE0,TLE_LINE1,TLE_LINE2,SEMIMAJOR_AXIS,PERIOD,APOGEE,PERIGEE,DECAYED
55952.0,STARLINK-5893,PAYLOAD,2024-04-05 12:41:39,14.98333653,0.0003094,70.0002,237.4882,269.7889,90.2916,5.427e-06,-2.8e-07,0.0,0 STARLINK-5893,1 55952U 23037AQ  24096.52892965 -.00000028  00000-0  54270-5 0  9992,2 55952  70.0002 237.4882 0003094 269.7889  90.2916 14.98333653 59484,6950.182,96.107,574.197,569.896,0.0
55952.0,STARLINK-5893,PAYLOAD,2024-04-05 19:06:11,14.98337126,0.0003082,70.0001,236.8145,268.9148,91.1658,4.1998e-05,4.08e-06,0.0,0 STARLINK-5893,1 55952U 23037AQ  24096.79596533  .00000408  00000-0  41998-4 0  9996,2 55952  70.0001 236.8145 0003082 268.9148  91.1658 14.98337126 59521,6950.171,96.107,574.178,569.894,0.0
55952.0,STARLINK-5893,PAYLOAD,2024-04-06 03:06:51,14.98334561,0.0003225,70.0,235.9721,269.5702,90.5087,-3.3394e-05,-4.92e-06,0.0,0 STARLINK-5893,1 55952U 23037AQ  24097.12976699 -.00000492  00000-0 -33394-4 0  9995,2 55952  70.0000 235.9721 0003225 269.5702  90.5087 14.98334561 59576,6950.179,96.107,574.285,569.802,0.0
55952.0,STARLINK-5893,PAYLOAD,2024-04-06 09:31:24,14.98328804,0.0003043,70.0003,235.2988,268.0274,92.0536,-8.109e-06,-1.9e-06,0.0,0 STARLINK-5893,1 55952U 23037AQ  24097.39681036 -.00000190  00000-0 -81090-5 0  9994,2 55952  70.0003 235.2988 0003043 268.0274  92.0536 14.98328804 59617,6950.197,96.107,574.177,569.947,0.0
55952.0,STARLINK-5893,PAYLOAD,2024-04-06 15:55:56,14.9833042,0.0003068,70.0014,234.6265,273.239,86.8418,-7.6977e-06,-1.85e-06,0.0,0 STARLINK-5893,1 55952U 23037AQ  24097.66384960 -.00000185  00000-0 -76977-5 0  9992,2 55952  70.0014 234.6265 0003068 273.2390  86.8418 14.98330420 59655,6950.192,96.107,574.189,569.924,0.0
55952.0,STARLINK-5893,PAYLOAD,2024-04-07 09:33:26,14.98316569,0.0003121,70.0014,232.7756,272.3217,87.7585,-0.00015931,-1.993e-05,0.0,0 STARLINK-5893,1 55952U 23037AQ  24098.39822579 -.00001993  00000-0 -15931-3 0  9995,2 55952  70.0014 232.7756 0003121 272.3217  87.7585 14.98316569 59762,6950.234,96.108,574.269,569.93,0.0
55952.0,STARLINK-5893,PAYLOAD,2024-04-07 15:57:58,14.98343648,0.0002519,70.0017,232.1023,262.3076,97.7797,-0.00060662,-7.326e-05,0.0,0 STARLINK-5893,1 55952U 23037AQ  24098.66526267 -.00007326  00000-0 -60662-3 0  9997,2 55952  70.0017 232.1023 0002519 262.3076  97.7797 14.98343648 59807,6950.151,96.106,573.766,570.265,0.0
55952.0,STARLINK-5893,PAYLOAD,2024-04-08 01:34:46,14.98350481,0.0002887,70.0022,231.0923,274.4296,85.6534,-0.0006616,-7.982e-05,0.0,0 STARLINK-5893,1 55952U 23037AQ  24099.06582033 -.00007982  00000-0 -66160-3 0  9992,2 55952  70.0022 231.0923 0002887 274.4296  85.6534 14.98350481 59860,6950.13,96.106,574.001,569.988,0.0
55952.0,STARLINK-5893,PAYLOAD,2024-04-08 09:35:27,14.9832337,0.0003231,69.999,230.2488,274.3164,85.7626,-9.4429e-06,-2.06e-06,0.0,0 STARLINK-5893,1 55952U 23037AQ  24099.39962339 -.00000206  00000-0 -94429-5 0  9992,2 55952  69.9990 230.2488 0003231 274.3164  85.7626 14.98323370 59911,6950.213,96.107,574.324,569.833,0.0
55952.0,STARLINK-5893,PAYLOAD,2024-04-09 01:36:47,14.98328278,0.0003197,69.9992,228.5661,276.3378,83.7417,0.00018772,2.147e-05,0.0,0 STARLINK-5893,1 55952U 23037AQ  24100.06721641  .00002147  00000-0  18772-3 0  9997,2 55952  69.9992 228.5661 0003197 276.3378  83.7417 14.98328278 60017,6950.198,96.107,574.285,569.841,0.0
55952.0,STARLINK-5893,PAYLOAD,2024-04-09 09:37:27,14.9833079,0.0003273,70.0002,227.7252,273.3785,86.6999,0.00019761,2.266e-05,0.0,0 STARLINK-5893,1 55952U 23037AQ  24100.40101443  .00002266  00000-0  19761-3 0  9998,2 55952  70.0002 227.7252 0003273 273.3785  86.6999 14.98330790 60067,6950.19,96.107,574.33,569.781,0.0
55952.0,STARLINK-5893,PAYLOAD,2024-04-09 14:25:51,14.98334442,0.0003272,70.001,227.221,270.9958,89.0826,0.00022975,2.65e-05,0.0,0 STARLINK-5893,1 55952U 23037AQ  24100.60129080  .00002650  00000-0  22975-3 0  9995,2 55952  70.0010 227.2210 0003272 270.9958  89.0826 14.98334442 59757,6950.179,96.107,574.318,569.77,0.0
55952.0,STARLINK-5893,PAYLOAD,2024-04-10 01:38:47,14.98336947,0.0003307,70.0003,226.0431,270.9401,89.1379,0.00016407,1.866e-05,0.0,0 STARLINK-5893,1 55952U 23037AQ  24101.06860923  .00001866  00000-0  16407-3 0  9995,2 55952  70.0003 226.0431 0003307 270.9401  89.1379 14.98336947 60166,6950.171,96.107,574.335,569.738,0.0
55952.0,STARLINK-5893,PAYLOAD,2024-04-10 09:39:29,14.98326825,0.000289,69.9993,225.201,271.9949,88.0879,-8.4067e-05,-1.096e-05,0.0,0 STARLINK-5893,1 55952U 23037AQ  24101.40242287 -.00001096  00000-0 -84067-4 0  9995,2 55952  69.9993 225.2010 0002890 271.9949  88.0879 14.98326825 60212,6950.203,96.107,574.076,570.059,0.0
55952.0,STARLINK-5893,PAYLOAD,2024-04-10 14:27:53,14.98330196,0.0003063,70.0022,224.6966,269.7441,90.3367,-8.5225e-05,-1.11e-05,0.0,0 STARLINK-5893,1 55952U 23037AQ  24101.60270037 -.00001110  00000-0 -85225-4 0  9995,2 55952  70.0022 224.6966 0003063 269.7441  90.3367 14.98330196 59904,6950.192,96.107,574.186,569.928,0.0
55952.0,STARLINK-5893,PAYLOAD,2024-04-10 17:40:09,14.98329451,0.0003055,70.003,224.3609,268.9527,91.1282,-8.5754e-05,-1.116e-05,0.0,0 STARLINK-5893,1 55952U 23037AQ  24101.73622075 -.00001116  00000-0 -85754-4 0  9995,2 55952  70.0030 224.3609 0003055 268.9527  91.1282 14.98329451 60269,6950.195,96.107,574.183,569.936,0.0
55952.0,STARLINK-5893,PAYLOAD,2024-04-11 01:40:49,14.98336832,0.0002979,69.9999,223.5181,270.7969,89.2849,-0.00010852,-1.388e-05,0.0,0 STARLINK-5893,1 55952U 23037AQ  24102.07001675 -.00001388  00000-0 -10852-3 0  9997,2 55952  69.9999 223.5181 0002979 270.7969  89.2849 14.98336832 60315,6950.172,96.107,574.107,569.966,0.0
55952.0,STARLINK-5893,PAYLOAD,2024-04-11 12:53:45,14.98340541,0.0003033,70.0008,222.3405,270.7344,89.3467,-5.1069e-05,-7.02e-06,0.0,0 STARLINK-5893,1 55952U 23037AQ  24102.53732979 -.00000702  00000-0 -51069-4 0  9991,2 55952  70.0008 222.3405 0003033 270.7344  89.3467 14.98340541 60380,6950.16,96.106,574.133,569.917,0.0
55952.0,STARLINK-5893,PAYLOAD,2024-04-11 14:29:53,14.98345026,0.0003167,70.0005,222.1712,270.4885,89.5912,-3.4346e-05,-5.03e-06,0.0,0 STARLINK-5893,1 55952U 23037AQ  24102.60408569 -.00000503  00000-0 -34346-4 0  9992,2 55952  70.0005 222.1712 0003167 270.4885  89.5912 14.98345026 60055,6950.146,96.106,574.213,569.81,0.0
55952.0,STARLINK-5893,PAYLOAD,2024-04-11 16:06:01,14.98344732,0.0003179,70.0007,222.003,270.586,89.4934,-3.4469e-05,-5.04e-06,0.0,0 STARLINK-5893,1 55952U 23037AQ  24102.67084533 -.00000504  00000-0 -34469-4 0  9997,2 55952  70.0007 222.0030 0003179 270.5860  89.4934 14.98344732 60401,6950.147,96.106,574.222,569.803,0.0
55952.0,STARLINK-5893,PAYLOAD,2024-04-12 01:42:49,14.98322193,0.000307,70.0004,220.9924,268.9187,91.1621,0.00022671,2.613e-05,0.0,0 STARLINK-5893,1 55952U 23037AQ  24103.07140790  .00002613  00000-0  22671-3 0  9992,2 55952  70.0004 220.9924 0003070 268.9187  91.1621 14.98322193 60466,6950.217,96.107,574.216,569.948,0.0
55952.0,STARLINK-5893,PAYLOAD,2024-04-12 12:55:46,14.98326903,0.0003032,70.0008,219.8139,269.9632,90.118,6.1136e-05,6.36e-06,0.0,0 STARLINK-5893,1 55952U 23037AQ  24103.53873073  .00000636  00000-0  61136-4 0  9993,2 55952  70.0008 219.8139 0003032 269.9632  90.1180 14.98326903 60539,6950.202,96.107,574.175,569.96,0.0
55952.0,STARLINK-5893,PAYLOAD,2024-04-12 14:31:54,14.98328878,0.0003031,70.0009,219.6457,269.4039,90.6773,2.9048e-05,2.54e-06,0.0,0 STARLINK-5893,1 55952U 23037AQ  24103.60549036  .00000254  00000-0  29048-4 0  9992,2 55952  70.0009 219.6457 0003031 269.4039  90.6773 14.98328878 60206,6950.196,96.107,574.168,569.955,0.0
55952.0,STARLINK-5893,PAYLOAD,2024-04-13 12:57:47,14.98331835,0.0002771,70.0014,217.2903,274.0749,86.0093,-0.00016257,-2.032e-05,0.0,0 STARLINK-5893,1 55952U 23037AQ  24104.54013490 -.00002032  00000-0 -16257-3 0  9991,2 55952  70.0014 217.2903 0002771 274.0749  86.0093 14.98331835 60685,6950.187,96.107,573.978,570.126,0.0
55952.0,STARLINK-5893,PAYLOAD,2024-04-13 14:33:55,14.98337486,0.0002364,70.0015,217.122,264.4524,95.6365,-0.00024503,-3.016e-05,0.0,0 STARLINK-5893,1 55952U 23037AQ  24104.60689362 -.00003016  00000-0 -24503-3 0  9991,2 55952  70.0015 217.1220 0002364 264.4524  95.6365 14.98337486 60359,6950.17,96.107,573.678,570.392,0.0
55952.0,STARLINK-5893,PAYLOAD,2024-04-13 17:46:10,14.9838156,0.0002444,70.0016,216.7855,263.7596,96.3285,-0.00093199,-0.0001121,0.0,0 STARLINK-5893,1 55952U 23037AQ  24104.74040034 -.00011210  00000-0 -93199-3 0  9995,2 55952  70.0016 216.7855 0002444 263.7596  96.3285 14.98381560 60710,6950.033,96.104,573.597,570.2,0.0
55952.0,STARLINK-5893,PAYLOAD,2024-04-14 12:59:47,14.98337649,0.0002801,70.0015,214.7664,274.8971,85.1868,-7.5446e-05,-9.93e-06,0.0,0 STARLINK-5893,1 55952U 23037AQ  24105.54152754 -.00000993  00000-0 -75446-4 0  9999,2 55952  70.0015 214.7664 0002801 274.8971  85.1868 14.98337649 60837,6950.169,96.107,573.981,570.087,0.0
55952.0,STARLINK-5893,PAYLOAD,2024-04-14 16:12:03,14.98354644,0.0002714,70.0018,214.43,271.5366,88.5482,-0.00022633,-2.794e-05,0.0,0 STARLINK-5893,1 55952U 23037AQ  24105.67503852 -.00002794  00000-0 -22633-3 0  9992,2 55952  70.0018 214.4300 0002714 271.5366  88.5482 14.98354644 60854,6950.117,96.105,573.868,570.095,0.0
55952.0,STARLINK-5893,PAYLOAD,2024-04-15 11:25:40,14.98327893,0.0002598,70.003,212.4133,253.5843,106.503,0.00014603,1.65e-05,0.0,0 STARLINK-5893,1 55952U 23037AQ  24106.47616449  .00001650  00000-0  14603-3 0  9994,2 55952  70.0030 212.4133 0002598 253.5843 106.5030 14.98327893 60979,6950.199,96.107,573.87,570.259,0.0
55952.0,STARLINK-5893,PAYLOAD,2024-04-15 17:50:12,14.98350339,0.0002536,70.0028,211.7398,252.4748,107.6134,-0.00024131,-2.972e-05,0.0,0 STARLINK-5893,1 55952U 23037AQ  24106.74319842 -.00002972  00000-0 -24131-3 0  9998,2 55952  70.0028 211.7398 0002536 252.4748 107.6134 14.98350339 61019,6950.13,96.106,573.758,570.232,0.0
